HAWK-7C                 
1 56200U 23054Y   26068.68891713  .00007947  00000+0  30980-3 0  9991
2 56200  97.2829 317.5849 0003651  52.2090 307.9479 15.26207266161848
STARLINK-30408          
1 57824U 23138S   26068.49176469 -.00001465  00000+0 -44950-4 0  9994
2 57824  43.0015 234.8161 0001710 273.2949  86.7706 15.26735277138709
